GLOBALSTAR M057         
1 25943U 99058A   25194.47294501 -.00000028  00000+0  59131-3 0  9999
2 25943  51.9986 273.6084 0002908  79.3786 280.7390 12.24825720170158
GLOBALSTAR M059         
1 25944U 99058B   25194.60485192 -.00000103  00000+0 -20397-3 0  9990
2 25944  52.0009 135.7043 0000989   4.6750 165.9766 11.99980242577210
GLOBALSTAR M056         
1 25945U 99058C   25194.32531889 -.00000137  00000+0 -58357-3 0  9999
2 25945  51.9954 137.7492 0000671 254.6803 241.9466 12.04781724165779
GLOBALSTAR M031         
1 25946U 99058D   25194.55962321 -.00000166  00000+0 -76505-3 0  9991
2 25946  51.9978  27.8617 0000694 197.7724 267.4383 12.16038066167992
GLOBALSTAR M039         
1 25961U 99062A   25194.37356958 -.00000099  00000+0  24244-4 0  9994
2 25961  51.9818 188.9579 0002732  44.3497 315.7588 12.62329907183526
GLOBALSTAR M034         
1 25962U 99062B   25194.54828265 -.00000123  00000+0 -66745-3 0  9999
2 25962  51.9890 302.8653 0014563  92.8134 280.2202 11.79446234141509
GLOBALSTAR M029         
1 25963U 99062C   25194.49663311 -.00000067  00000+0  23718-3 0  9992
2 25963  51.9822  24.0112 0002688 151.3029 224.2807 11.99898345172281
GLOBALSTAR M061         
1 25964U 99062D   25194.56506860 -.00000086  00000+0 -10138-3 0  9990
2 25964  51.9786 127.2049 0006505  14.0348 157.3074 11.76776414124283
